#dP2023  8 14 18  0  0.00000000      96 __u+U ITR00 EXT  IAC
## 2275 151200.00000000   900.00000000 60170 0.7500000000000
+  118   C06C07C08C09C10C11C12C13C14C16C19C20C21C22C23C24C25
+        C26C27C28C29C30C32C33C34C35C36C37C38C39C40C41C42C43
+        C44C45C46E02E03E04E05E07E08E09E10E11E12E13E14E15E18
+        E19E21E24E25E26E27E30E31E33E34E36G01G02G03G04G05G06
+        G07G08G09G10G11G12G13G14G15G16G17G18G19G20G21G23G24
+        G25G26G27G28G29G30G31G32J02J03J04R01R02R03R04R05R07
+        R08R09R11R12R13R14R15R16R17R18R19R20R21R22R24R25  0
++        11 10  9 11  8  8 10  9  9 11  7  8  9  8 10  8  9
++         9  9  9  6  8  9  8  7  9  9  9 10 11 10  9  9  8
++         7  8  9  7  7  7  8  8  7  8  7  8  7  8  7  8  8
++         6  7  8  8  7  7  7  7  7  8  7  7  7  6  8  6  7
++         7  7  8  7  7  6  7  7  7  7  7  6  7  6  7  7  7
++         7  9  7  7  7  7  7  7 10 10  9  9  8  8  7  8  7
++         7  9  7  8  9  9  9  9  7  7 10  9  8  6  7  8  0
%c M  cc GPS ccc cccc cccc cccc cccc ccccc ccccc ccccc ccccc
%c cc cc ccc ccc cccc cccc cccc cccc ccccc ccccc ccccc ccccc
%f  0.0000000  0.000000000  0.00000000000  0.000000000000000
%f  0.0000000  0.000000000  0.00000000000  0.000000000000000
%i    0    0    0    0      0      0      0      0         0
%i    0    0    0    0      0      0      0      0         0
/* IAC                                ULTRA-RAPID PREDICTION
/* S/V CLOCKS ARE ALIGNED TO GNSS TIME                      
/* G:C1WC2W R:C1PC2P E:C1XC5X C:C2IC6I J:C1CC2S             
/* PCV:IGS20_2247 OL/AL:FES2004  NONE     YN ORB:CoN CLK:CoN
*  2023 08 14 18 30  0.00000000
PC06 -14280.085282  39457.833972   2137.345694    881.208506
PC07  -3051.985937  31070.720589  28496.972901     70.129672
PC08 -16203.057251  21399.422587 -32602.498813    389.757846
PC09  -8700.630604  39336.229154  11815.161748    292.551136
PC10   3930.052188  33878.008846  25443.555837   -145.556392
PC11   -191.050766  27188.501750  -6289.364486    779.212384
PC12 -11242.306970  22730.446156  11705.716432    870.702735
PC13  -8506.269071  23046.557959 -34186.290850    334.244198
PC14   9224.584779  20820.903527 -16160.980758    227.511649
PC16 -15595.079763  38985.109842   -130.127698    -35.573504
PC19 -17273.775399 -20243.093227   8376.839684   -960.131179
PC20  -1315.614297 -18650.582602  20709.292632    361.603799
PC21 -16797.646767   5619.325871 -21550.586849   -949.417842
PC22 -24136.162930 -10250.549772  -9515.553681   -351.488141
PC23  23641.204374   1646.917115  14745.438932   -905.311157
PC24 -12036.831100  18462.751238  17126.965960    283.719151
PC25   9437.483794  13530.967190  22500.558979    189.412763
PC26 -24557.226377  13034.065462   2605.237548   -163.211469
PC27  14658.992967 -15781.431780 -17766.208269    184.408980
PC28  15631.605171   3304.274905 -22877.211668    137.909811
PC29  -7766.675005 -22719.504620  14209.942651    160.878560
PC30   5041.571220 -27247.491231  -3376.409091     -3.484350
PC32  16874.043803  -5648.278213  21508.152574   -532.320748
PC33  17350.835539  20172.534819  -8448.375170   -937.312535
PC34  -4151.974059  27514.869262   1996.009644    237.120518
PC35 -15775.891322  -3070.682057  22802.232261    567.790935
PC36  -8307.223347 -14131.078533 -22554.734336   -276.540330
PC37  25157.956569 -11923.155844  -1709.540572   -807.464236
PC38 -23592.693813  22601.697242 -26721.682493     98.160295
PC39 -17169.231387  37688.872409  -7129.782541     -4.319627
PC40  -6557.364538  26219.725636  32451.365061    -32.901760
PC41  24226.888545  10672.747804   8890.612469   -888.526141
PC42    -83.768905  18080.034949 -21228.114388   -577.960003
PC43   7289.440817  23301.773924 -13512.109950     35.255498
PC44 -14207.033781  16120.265189  17778.924393    200.046516
PC45 -23894.357999  -1172.046551 -14378.997972    -13.966050
PC46  10695.135934 -18397.191389 -18028.123406    -76.542501
PE02  22248.619602  13635.981678  13965.553957     55.629079
PE03  16483.826559  21962.379255  11065.641770    -45.947672
PE04 -18347.832565  -3024.985061 -23024.865488   -189.343151
PE05   4978.773318  28215.797390  -7443.254770      8.997749
PE07   9654.175569 -17636.203852  21723.122559    -67.366834
PE08  18312.868695   3541.376255  22985.946282   -130.304548
PE09  -9596.756457  17491.129614 -21871.660087   -120.379343
PE10 -22328.140239  15785.219839  11338.992209   -556.092759
PE11 -19377.044665  22343.039562   1153.726913   2723.726173
PE12 -21705.363251   7259.516901  18757.996698   -657.942420
PE13  19676.326391 -22030.358771  -1909.115057    -19.433825
PE14 -14420.546749 -14196.983415  11896.270344    311.251214
PE15  21553.186902  -6950.297276 -19060.167881    -45.095991
PE18  20254.290631  18155.586544 -17720.542796    413.367454
PE19 -15301.808414 -23739.223381  -8853.376849  -1851.214782
PE21  -3409.047088 -17220.680431 -23826.185981   -546.649257
PE24 -19031.917725  10694.305248  19990.389736   -265.718225
PE25   2992.641843  17207.073043  23909.377683     -0.251019
PE26   5619.762993 -23850.982211  16595.441258    192.735938
PE27  18408.155378 -11057.828873 -20361.750648   -124.521905
PE30  29185.037555   1941.660205  -4518.070705   -417.839762
PE31 -29141.878053  -1531.601068   4968.292090     -2.671050
PE33 -10300.427259 -12523.229559  24758.625289     -1.546404
PE34  10819.342631  11973.950105 -24824.773514    -61.534837
PE36  -6308.301144  24009.844869 -16125.138260   -101.021025
PG01 -13490.174966  21727.085926  -6811.786347    168.609367
PG02 -16567.516361  20601.022829   1778.765897   -565.473143
PG03  -7484.356330  13436.599188 -21783.627487   -187.155439
PG04  -2309.009625  23008.851174 -12948.222163    125.578321
PG05  22053.996508  -6140.816748  13374.132844   -138.799887
PG06  15391.815407   3699.294089 -21284.792093    566.270620
PG07    891.930602  19222.889256  18569.956544     95.860614
PG08  -9529.849541  14453.643054  19956.883905   -137.188731
PG09   5894.060116  25443.162384  -4772.573097    -86.658007
PG10 -22051.090919 -11215.429602  10267.223833    -49.273492
PG11  21210.187264  -9086.071428 -13099.235285   -320.843158
PG12  12256.372703 -11635.533628 -20745.678849   -412.876160
PG13  13979.548386  -5689.047544  21650.788905    560.079780
PG14  19353.044108  13460.454051  12418.810235    153.987355
PG15   7362.063167 -16398.201269  19002.743384     67.628832
PG16 -24777.486363     51.689501   9852.561033   -468.242613
PG17  13213.606571  20060.066443 -10776.651078    722.712816
PG18  -2214.270587 -17593.287980  19717.939778   -382.443916
PG19  15288.707305  13547.385779 -17362.232659    357.643994
PG20  26211.986258  -1763.580554   3170.450068    417.243181
PG21 -17486.114701  18942.289546   4425.653246    150.729278
PG23 -11310.735063 -14858.712187  18957.056452     55.084645
PG24  14459.607247 -21975.008437  -1447.490874   -289.663771
PG25  -3114.384225 -15984.554088 -21336.613018    462.148340
PG26 -26385.477428  -4215.355633  -1422.713965    232.940466
PG27 -15206.930971   1500.011264  21507.426415    -21.972648
PG28 -14674.628178  -5630.206107 -21431.197546     76.161567
PG29  -3259.790825 -25818.946283  -5079.888938   -607.763303
PG30   9746.297706  12703.335863  21292.592743   -496.456611
PG31 -20283.659512   4517.846987 -16956.233022   -221.827090
PG32 -15909.377299 -16394.616386 -13535.606605   -540.523033
PJ02 -29906.239080  21390.526093  25707.227184     -2.554914
PJ03 -31573.601707  26477.094806  14212.831609     -1.060124
PJ04 -22413.218569  22862.464149 -22386.152168     70.495645
PR01 -19032.406013 -16075.430527  -5456.061434     63.486408
PR02 -15476.617550  -3293.210496 -19989.854611    -22.530336
PR03  -3493.169510  11772.803959 -22306.668202     83.297087
PR04  10125.154457  19884.096140 -12322.695519    198.685026
PR05  18166.474638  17349.954688   4364.765375    117.331133
PR07   2773.815635 -12450.777666  22134.280307     62.426339
PR08 -10305.368759 -19925.032908  12229.158682    -72.125233
PR09  24870.954184  -5820.972759    708.347553    136.689734
PR11    252.839266 -11226.449630 -22888.988954   -132.322185
PR12 -18711.514987  -4065.303666 -16827.579054     30.172219
PR13 -24947.345418   4545.096033  -2765.464451    -38.154309
PR14 -16557.339096  11601.245890  15558.147140     25.086571
PR15   1174.243610  11073.965862  22973.984684     87.008275
PR16  18494.961770   4006.297062  17139.533991     17.698330
PR17 -10387.089270  22409.834257   6476.088365      8.829959
PR18  -2992.665228  23189.497050 -10136.050381     96.759475
PR19   4903.271212  13655.754550 -20986.405425   -243.500818
PR20  12689.706497  -7705.143770 -20747.446378    -98.316524
PR21  10143.215064 -22756.098240  -5389.184228    -30.361333
PR22   2990.696939 -22843.716211  10980.675440    112.995493
PR24 -12873.042671   8630.700458  20281.214267    -20.467439
PR25  11458.583287 -21830.217899  -6488.909296     42.652173
EOF
